[{"OBJECT_NAME":"CHECKMATE 7","OBJECT_ID":"2023-050E","EPOCH":"2026-03-09T21:02:25.149408","MEAN_MOTION":13.8516674,"ECCENTRICITY":0.00065951,"INCLINATION":81.0032,"RA_OF_ASC_NODE":166.6398,"ARG_OF_PERICENTER":213.3356,"MEAN_ANOMALY":146.7386,"EPHEMERIS_TYPE":0,"CLASSIFICATION_TYPE":"U","NORAD_CAT_ID":56166,"ELEMENT_SET_NO":999,"REV_AT_EPOCH":14835,"BSTAR":0.00014609546,"MEAN_MOTION_DOT":1.77e-6,"MEAN_MOTION_DDOT":0},{"OBJECT_NAME":"COSMOS 367","OBJECT_ID":"1970-079A","EPOCH":"2026-03-09T22:33:50.676768","MEAN_MOTION":13.78562155,"ECCENTRICITY":0.00492577,"INCLINATION":65.2792,"RA_OF_ASC_NODE":311.0936,"ARG_OF_PERICENTER":115.2289,"MEAN_ANOMALY":245.3888,"EPHEMERIS_TYPE":0,"CLASSIFICATION_TYPE":"U","NORAD_CAT_ID":4564,"ELEMENT_SET_NO":999,"REV_AT_EPOCH":78943,"BSTAR":3.129103e-5,"MEAN_MOTION_DOT":-5.3e-7,"MEAN_MOTION_DDOT":0}]
